OBJECT_NAME,OBJECT_ID,EPOCH,MEAN_MOTION,ECCENTRICITY,INCLINATION,RA_OF_ASC_NODE,ARG_OF_PERICENTER,MEAN_ANOMALY,EPHEMERIS_TYPE,CLASSIFICATION_TYPE,NORAD_CAT_ID,ELEMENT_SET_NO,REV_AT_EPOCH,BSTAR,MEAN_MOTION_DOT,MEAN_MOTION_DDOT
KUIPER-00223,2026-030V,2026-06-10T05:21:14.650272,14.79903721,.000088,51.9002,143.8629,82.6177,277.4886,0,U,67783,999,1916,.29716E-3,.2043E-4,0
KUIPER-00225,2026-030W,2026-06-10T14:00:01.999872,14.79942382,.00010029,51.8948,147.4410,85.7309,64.2239,0,U,67784,999,570,-.17091222E-2,-.13228E-3,0
KUIPER-00226,2026-030X,2026-06-10T04:33:08.745984,15.23079873,.00192354,51.8803,139.8860,37.7356,322.4970,0,U,67785,999,1921,-.23171508E-3,-.5906E-4,0
KUIPER-00259,2026-030Y,2026-06-10T14:00:01.999872,14.78829095,.00020455,51.8964,147.3380,65.0556,267.9845,0,U,67786,999,317,.4086593E-2,.30266E-3,0
KUIPER-00260,2026-030Z,2026-06-10T04:14:20.330016,14.76425696,.0001384,51.8994,146.6289,173.6353,186.4626,0,U,67787,999,1902,.29385E-3,.1848E-4,0
KUIPER-00262,2026-030AA,2026-06-10T05:17:12.096096,14.79987172,.0000371,51.8997,146.4564,92.0953,268.0052,0,U,67788,999,1912,.29598E-3,.2039E-4,0
KUIPER-00266,2026-030AB,2026-06-10T14:00:01.999872,14.80000332,.00044542,51.8976,142.3511,71.6265,229.4253,0,U,67789,999,573,-.64425773E-2,-.49067E-3,0
KUIPER-00268,2026-030AC,2026-06-10T05:25:14.366208,14.79931781,.0000997,51.9025,141.4335,92.6887,267.4189,0,U,67790,999,1919,.34109E-3,.238E-4,0
KUIPER-00270,2026-030AD,2026-06-10T14:00:01.999872,15.16490046,.0012193,51.8892,132.2990,23.9665,323.2738,0,U,67791,999,329,-.13267948E-2,-.26446E-3,0
KUIPER-00274,2026-030AE,2026-06-10T14:00:01.999872,14.79868462,.00014015,51.8996,152.3386,114.7024,243.6062,0,U,67792,999,497,-.38646163E-2,-.29509E-3,0
KUIPER-00275,2026-030AF,2026-06-10T14:00:01.999872,15.02753103,.00091946,51.8927,133.3993,37.8981,58.0603,0,U,67793,999,390,-.12908912E+0,-.1605963E-1,0
KUIPER-00276,2026-030AG,2026-06-10T14:00:01.999872,15.05419736,.00172839,51.8896,138.6053,7.7100,106.4657,0,U,67794,999,547,-.51071015E-2,-.73922E-3,0
KUIPER-00279,2026-030AH,2026-06-10T14:00:01.999872,15.29868180,.00085847,51.8818,131.3160,22.3390,34.9046,0,U,67795,999,578,-.34745367E-3,-.10556E-3,0
CREW DRAGON 12,2026-031A,2026-06-10T09:59:31.702560,15.49162374,.00058814,51.6361,333.6061,172.3680,187.7399,0,U,67796,999,57080,.10451669E-3,.5345E-4,0
STARLINK-36800,2026-032A,2026-06-10T12:43:31.170432,15.33450641,.00016927,97.2863,349.4630,95.6482,264.4954,0,U,67797,999,1919,.36298314E-3,.11664E-3,0
STARLINK-36798,2026-032B,2026-06-10T12:16:06.945600,15.33445345,.00019895,97.2856,349.3364,87.9391,272.2080,0,U,67798,999,1918,.69339651E-3,.22378E-3,0
STARLINK-36804,2026-032C,2026-06-10T12:39:36.225504,15.33456774,.00019829,97.2858,349.3163,88.5011,271.6459,0,U,67799,999,1918,.52589356E-3,.16948E-3,0
STARLINK-36354,2026-032D,2026-06-10T12:23:56.760288,15.33443455,.00019554,97.2859,349.3318,92.9755,267.1712,0,U,67800,999,1918,.62677306E-3,.20213E-3,0
STARLINK-36773,2026-032E,2026-06-10T12:35:41.275392,15.33453549,.00018584,97.2857,349.3203,86.9204,273.2251,0,U,67801,999,1918,.75743604E-3,.24464E-3,0
STARLINK-36739,2026-032F,2026-06-10T12:00:27.140832,15.33452058,.00018689,97.2859,349.3528,89.6086,270.5371,0,U,67802,999,1918,.38175812E-3,.12273E-3,0
STARLINK-36768,2026-032G,2026-06-10T12:27:51.535008,15.33457084,.00020579,97.2851,349.3269,93.0845,267.0633,0,U,67803,999,1918,.81408873E-3,.26309E-3,0
STARLINK-36792,2026-032H,2026-06-10T12:31:46.242336,15.33452835,.00018233,97.2860,349.3234,96.8870,263.2580,0,U,67804,999,1918,.36722974E-3,.11802E-3,0
STARLINK-36782,2026-032J,2026-06-10T11:36:57.934368,15.33479377,.00019977,97.2850,349.3769,92.4283,267.7188,0,U,67805,999,1918,.71767485E-3,.23191E-3,0
STARLINK-36389,2026-032K,2026-06-10T12:08:16.968480,15.33449693,.00019035,97.2858,349.3451,89.4296,270.7165,0,U,67806,999,1918,.71346068E-3,.23032E-3,0
STARLINK-36382,2026-032L,2026-06-10T12:04:22.161792,15.33443249,.00018342,97.2868,349.3468,87.5324,272.6129,0,U,67807,999,1918,.62890332E-3,.20282E-3,0
STARLINK-36811,2026-032M,2026-06-10T11:40:52.578624,15.33457822,.00016385,97.2861,349.3736,90.2605,269.8825,0,U,67808,999,1918,.51736807E-3,.16671E-3,0
STARLINK-36795,2026-032N,2026-06-10T12:20:01.684896,15.33451372,.00018134,97.2860,349.3349,91.8663,268.2787,0,U,67809,999,1918,.74583062E-3,.24085E-3,0
STARLINK-36807,2026-032P,2026-06-10T11:44:48.960384,15.33422771,.00017152,97.2851,349.3685,93.5509,266.5930,0,U,67810,999,1918,.17127832E-3,.5455E-4,0
STARLINK-36733,2026-032Q,2026-06-10T09:51:14.631264,15.33438910,.00016845,97.2852,349.3239,65.8287,294.3132,0,U,67811,999,1917,.97982513E-3,.31685E-3,0
STARLINK-36377,2026-032R,2026-06-10T01:57:29.051136,15.33459028,.0001256,97.2865,349.0016,76.2415,283.8967,0,U,67812,999,1912,.71888E-3,.23215E-3,0
