0 KUIPER-00223
1 67783U 26030V   26161.22308623  .00002043  00000-0  29716-3 0  9991
2 67783  51.9002 143.8629 0000880  82.6177 277.4886 14.79903721 19162
0 KUIPER-00225
1 67784U 26030W   26161.58335648 -.00013228  00000-0 -17091-2 0  9999
2 67784  51.8948 147.4410 0001003  85.7309  64.2239 14.79942382  5703
0 KUIPER-00226
1 67785U 26030X   26161.18968456 -.00005906  00000-0 -23172-3 0  9997
2 67785  51.8803 139.8860 0019235  37.7356 322.4970 15.23079873 19211
0 KUIPER-00259
1 67786U 26030Y   26161.58335648  .00030266  00000-0  40866-2 0  9996
2 67786  51.8964 147.3380 0002046  65.0556 267.9845 14.78829095  3179
0 KUIPER-00260
1 67787U 26030Z   26161.17662419  .00001848  00000-0  29385-3 0  9999
2 67787  51.8994 146.6289 0001384 173.6353 186.4626 14.76425696 19028
0 KUIPER-00262
1 67788U 26030AA  26161.22027889  .00002039  00000-0  29598-3 0  9991
2 67788  51.8997 146.4564 0000371  92.0953 268.0052 14.79987172 19127
0 KUIPER-00266
1 67789U 26030AB  26161.58335648 -.00049067  00000-0 -64426-2 0  9998
2 67789  51.8976 142.3511 0004454  71.6265 229.4253 14.80000332  5739
0 KUIPER-00268
1 67790U 26030AC  26161.22586072  .00002380  00000-0  34109-3 0  9991
2 67790  51.9025 141.4335 0000997  92.6887 267.4189 14.79931781 19196
0 KUIPER-00270
1 67791U 26030AD  26161.58335648 -.00026446  00000-0 -13268-2 0  9995
2 67791  51.8892 132.2990 0012193  23.9665 323.2738 15.16490046  3296
0 KUIPER-00274
1 67792U 26030AE  26161.58335648 -.00029509  00000-0 -38646-2 0  9996
2 67792  51.8996 152.3386 0001402 114.7024 243.6062 14.79868462  4973
0 KUIPER-00275
1 67793U 26030AF  26161.58335648 -.01605963  00000-0 -12909+0 0  9993
2 67793  51.8927 133.3993 0009195  37.8981  58.0603 15.02753103  3908
0 KUIPER-00276
1 67794U 26030AG  26161.58335648 -.00073922  00000-0 -51071-2 0  9993
2 67794  51.8896 138.6053 0017284   7.7100 106.4657 15.05419736  5471
0 KUIPER-00279
1 67795U 26030AH  26161.58335648 -.00010556  00000-0 -34745-3 0  9998
2 67795  51.8818 131.3160 0008585  22.3390  34.9046 15.29868180  5781
0 DRAGON FREEDOM 3
1 67796U 26031A   26161.41633915  .00005345  00000-0  10452-3 0  9997
2 67796  51.6361 333.6061 0005881 172.3680 187.7399 15.49162374570806
0 STARLINK-36800
1 67797U 26032A   26161.53022188  .00011664  00000-0  36298-3 0  9993
2 67797  97.2863 349.4630 0001693  95.6482 264.4954 15.33450641 19191
0 STARLINK-36798
1 67798U 26032B   26161.51119150  .00022378  00000-0  69340-3 0  9996
2 67798  97.2856 349.3364 0001990  87.9391 272.2080 15.33445345 19181
0 STARLINK-36804
1 67799U 26032C   26161.52750261  .00016948  00000-0  52589-3 0  9995
2 67799  97.2858 349.3163 0001983  88.5011 271.6459 15.33456774 19180
0 STARLINK-36354
1 67800U 26032D   26161.51662917  .00020213  00000-0  62677-3 0  9996
2 67800  97.2859 349.3318 0001955  92.9755 267.1712 15.33443455 19183
0 STARLINK-36773
1 67801U 26032E   26161.52478328  .00024464  00000-0  75744-3 0  9990
2 67801  97.2857 349.3203 0001858  86.9204 273.2251 15.33453549 19180
0 STARLINK-36739
1 67802U 26032F   26161.50031413  .00012273  00000-0  38176-3 0  9992
2 67802  97.2859 349.3528 0001869  89.6086 270.5371 15.33452058 19180
0 STARLINK-36768
1 67803U 26032G   26161.51934647  .00026309  00000-0  81409-3 0  9997
2 67803  97.2851 349.3269 0002058  93.0845 267.0633 15.33457084 19184
0 STARLINK-36792
1 67804U 26032H   26161.52206299  .00011802  00000-0  36723-3 0  9995
2 67804  97.2860 349.3234 0001823  96.8870 263.2580 15.33452835 19183
0 STARLINK-36782
1 67805U 26032J   26161.48400387  .00023191  00000-0  71767-3 0  9996
2 67805  97.2850 349.3769 0001998  92.4283 267.7188 15.33479377 19182
0 STARLINK-36389
1 67806U 26032K   26161.50575195  .00023032  00000-0  71346-3 0  9997
2 67806  97.2858 349.3451 0001903  89.4296 270.7165 15.33449693 19182
0 STARLINK-36382
1 67807U 26032L   26161.50303428  .00020282  00000-0  62890-3 0  9994
2 67807  97.2868 349.3468 0001834  87.5324 272.6129 15.33443249 19188
0 STARLINK-36811
1 67808U 26032M   26161.48671966  .00016671  00000-0  51737-3 0  9992
2 67808  97.2861 349.3736 0001638  90.2605 269.8825 15.33457822 19188
0 STARLINK-36795
1 67809U 26032N   26161.51390839  .00024085  00000-0  74583-3 0  9996
2 67809  97.2860 349.3349 0001813  91.8663 268.2787 15.33451372 19188
0 STARLINK-36807
1 67810U 26032P   26161.48945556  .00005455  00000-0  17128-3 0  9998
2 67810  97.2851 349.3685 0001715  93.5509 266.5930 15.33422771 19184
0 STARLINK-36733
1 67811U 26032Q   26161.41058601  .00031685  00000-0  97983-3 0  9999
2 67811  97.2852 349.3239 0001685  65.8287 294.3132 15.33438910 19176
0 STARLINK-36377
1 67812U 26032R   26161.08158624  .00023215  00000-0  71888-3 0  9995
2 67812  97.2865 349.0016 0001256  76.2415 283.8967 15.33459028 19121
